[{"OBJECT_NAME":"STARLINK-36120","OBJECT_ID":"2025-293P","EPOCH":"2026-03-09T19:10:56.604000","MEAN_MOTION":14.98335584,"ECCENTRICITY":0.00034813,"INCLINATION":70.0009,"RA_OF_ASC_NODE":94.2038,"ARG_OF_PERICENTER":267.624,"MEAN_ANOMALY":92.4521,"EPHEMERIS_TYPE":0,"CLASSIFICATION_TYPE":"U","NORAD_CAT_ID":67016,"ELEMENT_SET_NO":999,"REV_AT_EPOCH":1490,"BSTAR":0.00033786536,"MEAN_MOTION_DOT":3.941e-5,"MEAN_MOTION_DDOT":0},{"OBJECT_NAME":"DELTA 1 DEB","OBJECT_ID":"1975-004G","EPOCH":"2026-03-09T15:36:08.786016","MEAN_MOTION":14.94952077,"ECCENTRICITY":0.0108933,"INCLINATION":98.7496,"RA_OF_ASC_NODE":312.2418,"ARG_OF_PERICENTER":37.6041,"MEAN_ANOMALY":323.2729,"EPHEMERIS_TYPE":0,"CLASSIFICATION_TYPE":"U","NORAD_CAT_ID":8679,"ELEMENT_SET_NO":999,"REV_AT_EPOCH":62753,"BSTAR":0.0013803,"MEAN_MOTION_DOT":0.00016927,"MEAN_MOTION_DDOT":0}]
